NORAD_CAT_ID,OBJECT_NAME,OBJECT_TYPE,EPOCH,MEAN_MOTION,ECCENTRICITY,INCLINATION,RA_OF_ASC_NODE,ARG_OF_PERICENTER,MEAN_ANOMALY,BSTAR,MEAN_MOTION_DOT,MEAN_MOTION_DDOT,TLE_LINE0,TLE_LINE1,TLE_LINE2,SEMIMAJOR_AXIS,PERIOD,APOGEE,PERIGEE,DECAYED
49149.0,STARLINK-3053,PAYLOAD,2021-10-30 04:00:00,15.69740546,0.0004169,70.0,357.445,288.472,278.6731,0.00022947,0.00027264,0.0,0 STARLINK-3053,1 49149U 21082V   21303.16667824  .00027264  00000-0  22947-3 0  9997,2 49149  70.0000 357.4450 0004169 288.4720 278.6731 15.69740546  8532,6737.776,91.735,362.45,356.832,0.0
49149.0,STARLINK-3053,PAYLOAD,2021-10-30 14:00:01,15.69749608,0.0004327,69.9996,356.2736,295.2571,105.8571,7.6025e-05,8.874e-05,0.0,0 STARLINK-3053,1 49149U 21082V   21303.58335648  .00008874  00000-0  76025-4 0  9992,2 49149  69.9996 356.2736 0004327 295.2571 105.8571 15.69749608  3685,6737.75,91.734,362.531,356.7,0.0
49149.0,STARLINK-3053,PAYLOAD,2021-10-30 20:00:01,15.69769197,0.0004133,69.9995,355.5708,292.9624,80.4489,-0.00070744,-0.00083911,0.0,0 STARLINK-3053,1 49149U 21082V   21303.83334491 -.00083911  00000-0 -70744-3 0  9993,2 49149  69.9995 355.5708 0004133 292.9624  80.4489 15.69769197  8645,6737.694,91.733,362.344,356.775,0.0
49149.0,STARLINK-3053,PAYLOAD,2021-10-31 04:00:00,15.69606231,0.0004269,69.9998,354.6266,294.1338,162.2155,0.0019334,0.00235833,0.0,0 STARLINK-3053,1 49149U 21082V   21304.16667824  .00235833  00000-0  19334-2 0  9996,2 49149  69.9998 354.6266 0004269 294.1338 162.2155 15.69606231  8696,6738.161,91.743,362.902,357.149,0.0
49149.0,STARLINK-3053,PAYLOAD,2021-10-31 12:00:00,15.69755752,0.0004047,70.0,353.6968,296.0925,243.5431,0.0002317,0.00027549,0.0,0 STARLINK-3053,1 49149U 21082V   21304.50001157  .00027549  00000-0  23170-3 0  9992,2 49149  70.0000 353.6968 0004047 296.0925 243.5431 15.69755752  8747,6737.733,91.734,362.325,356.871,0.0
49149.0,STARLINK-3053,PAYLOAD,2021-10-31 14:00:01,15.69773231,0.0004084,70.0,353.4626,296.5529,353.8653,-8.466700000000001e-05,-0.00010319,0.0,0 STARLINK-3053,1 49149U 21082V   21304.58334491 -.00010319  00000-0 -84667-4 0  9998,2 49149  70.0000 353.4626 0004084 296.5529 353.8653 15.69773231  3694,6737.683000000001,91.733,362.299,356.796,0.0
49149.0,STARLINK-3053,PAYLOAD,2021-10-31 20:00:01,15.69762111,0.0003794,69.9997,352.7599,295.4385,327.3519,-0.00048573,-0.00057835,0.0,0 STARLINK-3053,1 49149U 21082V   21304.83334491 -.00057835  00000-0 -48573-3 0  9995,2 49149  69.9997 352.7599 0003794 295.4385 327.3519 15.69762111  8802,6737.715,91.734,362.136,357.023,0.0
49149.0,STARLINK-3053,PAYLOAD,2021-10-31 22:00:01,15.69704308,0.0003725,69.9998,352.5256,293.1762,80.4774,0.0004853,0.00058018,0.0,0 STARLINK-3053,1 49149U 21082V   21304.91668981  .00058018  00000-0  48530-3 0  9993,2 49149  69.9998 352.5256 0003725 293.1762  80.4774 15.69704308  3673,6737.88,91.737,362.255,357.235,0.0
49149.0,STARLINK-3053,PAYLOAD,2021-11-01 04:00:00,15.69760032,0.0003745,69.9999,351.8233,292.2266,53.6743,0.00016844,0.00019953,0.0,0 STARLINK-3053,1 49149U 21082V   21305.16667824  .00019953  00000-0  16844-3 0  9994,2 49149  69.9999 351.8233 0003745 292.2266  53.6743 15.69760032  8851,6737.721,91.734,362.109,357.06199999999984,0.0
49149.0,STARLINK-3053,PAYLOAD,2021-11-01 12:00:02,15.69768007,0.0004029,69.9995,350.8861,296.8761,132.2429,-0.00030656,-0.00036683,0.0,0 STARLINK-3053,1 49149U 21082V   21305.50002315 -.00036683  00000-0 -30656-3 0  9998,2 49149  69.9995 350.8861 0004029 296.8761 132.2429 15.69768007  8900,6737.698,91.733,362.277,356.848,0.0
49149.0,STARLINK-3053,PAYLOAD,2021-11-01 14:00:01,15.69743278,0.0004103,69.9993,350.652,297.1658,242.6814,1.6265e-05,1.729e-05,0.0,0 STARLINK-3053,1 49149U 21082V   21305.58334491  .00001729  00000-0  16265-4 0  9991,2 49149  69.9993 350.6520 0004103 297.1658 242.6814 15.69743278  3687,6737.769,91.735,362.398,356.869,0.0
49149.0,STARLINK-3053,PAYLOAD,2021-11-01 22:00:00,15.69720616,0.0003984,69.9993,349.7147,292.6495,330.3162,0.00026959,0.00032059,0.0,0 STARLINK-3053,1 49149U 21082V   21305.91667824  .00032059  00000-0  26959-3 0  9997,2 49149  69.9993 349.7147 0003984 292.6495 330.3162 15.69720616  3677,6737.833000000001,91.736,362.383,357.014,0.0
49149.0,STARLINK-3053,PAYLOAD,2021-11-02 12:00:00,15.69689531,0.0003924,69.9995,348.075,297.6611,20.7325,0.00052305,0.00062546,0.0,0 STARLINK-3053,1 49149U 21082V   21306.50001157  .00062546  00000-0  52305-3 0  9992,2 49149  69.9995 348.0750 0003924 297.6611  20.7325 15.69689531  9060,6737.922,91.738,362.431,357.14300000000014,0.0
49149.0,STARLINK-3053,PAYLOAD,2021-11-02 14:00:01,15.69699211,0.0003951,69.9993,347.8406,297.957,131.2038,0.00048859,0.00058406,0.0,0 STARLINK-3053,1 49149U 21082V   21306.58334491  .00058406  00000-0  48859-3 0  9999,2 49149  69.9993 347.8406 0003951 297.9570 131.2038 15.69699211  3698,6737.895,91.737,362.422,357.097,0.0
49149.0,STARLINK-3053,PAYLOAD,2021-11-02 22:00:00,15.69708553,0.0003795,69.9992,346.9039,293.3027,218.9734,0.00071115,0.00085413,0.0,0 STARLINK-3053,1 49149U 21082V   21306.91667824  .00085413  00000-0  71115-3 0  9994,2 49149  69.9992 346.9039 0003795 293.3027 218.9734 15.69708553  3676,6737.868,91.737,362.29,357.176,0.0
49149.0,STARLINK-3053,PAYLOAD,2021-11-03 12:00:00,15.69764102,0.0004086,69.9987,345.2642,297.1361,270.6238,-0.00023842,-0.000286,0.0,0 STARLINK-3053,1 49149U 21082V   21307.50001157 -.00028600  00000-0 -23842-3 0  9992,2 49149  69.9987 345.2642 0004086 297.1361 270.6238 15.69764102  9211,6737.709,91.734,362.327,356.821,0.0
49149.0,STARLINK-3053,PAYLOAD,2021-11-03 14:00:01,15.69746664,0.0004153,69.9984,345.0301,296.8146,21.7365,-3.6374e-05,-4.553e-05,0.0,0 STARLINK-3053,1 49149U 21082V   21307.58334491 -.00004553  00000-0 -36374-4 0  9996,2 49149  69.9984 345.0301 0004153 296.8146  21.7365 15.69746664  3695,6737.759,91.735,362.422,356.826,0.0
49149.0,STARLINK-3053,PAYLOAD,2021-11-03 22:00:00,15.69714152,0.0004012,69.9984,344.0927,291.844,109.8275,0.00027704,0.00032946,0.0,0 STARLINK-3053,1 49149U 21082V   21307.91667824  .00032946  00000-0  27704-3 0  9993,2 49149  69.9984 344.0927 0004012 291.8440 109.8275 15.69714152  3688,6737.852,91.736,362.42,357.014,0.0
49149.0,STARLINK-3053,PAYLOAD,2021-11-04 14:00:01,15.69721699,0.0003986,69.9982,342.2184,297.5752,270.311,0.00048885,0.00058493,0.0,0 STARLINK-3053,1 49149U 21082V   21308.58334491  .00058493  00000-0  48885-3 0  9996,2 49149  69.9982 342.2184 0003986 297.5752 270.3110 15.69721699  3674,6737.83,91.736,362.381,357.01,0.0
49149.0,STARLINK-3053,PAYLOAD,2021-11-04 20:00:01,15.69781012,0.0003825,69.9982,341.5156,294.9975,245.266,0.00051276,0.00061535,0.0,0 STARLINK-3053,1 49149U 21082V   21308.83334491  .00061535  00000-0  51276-3 0  9993,2 49149  69.9982 341.5156 0003825 294.9975 245.2660 15.69781012  9420,6737.661,91.733,362.103,356.9480000000001,0.0
49149.0,STARLINK-3053,PAYLOAD,2021-11-04 22:00:00,15.69759578,0.0003779,69.9982,341.2815,293.4468,357.6192,0.0011255999999999,0.00136431,0.0,0 STARLINK-3053,1 49149U 21082V   21308.91667824  .00136431  00000-0  11256-2 0  9992,2 49149  69.9982 341.2815 0003779 293.4468 357.6192 15.69759578  3679,6737.722,91.734,362.133,357.041,0.0
49149.0,STARLINK-3053,PAYLOAD,2021-11-05 12:00:00,15.69808395,0.00041,69.9978,339.6414,296.7812,49.8964,-0.00077233,-0.00091652,0.0,0 STARLINK-3053,1 49149U 21082V   21309.50001157 -.00091652  00000-0 -77233-3 0  9994,2 49149  69.9978 339.6414 0004100 296.7812  49.8964 15.69808395  9538,6737.581999999999,91.731,362.21,356.685,0.0
49149.0,STARLINK-3053,PAYLOAD,2021-11-05 14:00:01,15.6981105,0.000412,69.9976,339.4072,297.0538,160.4174,-0.0011807,-0.00139232,0.0,0 STARLINK-3053,1 49149U 21082V   21309.58334491 -.00139232  00000-0 -11807-2 0  9993,2 49149  69.9976 339.4072 0004120 297.0538 160.4174 15.69811050  3679,6737.575,91.731,362.215,356.664,0.0
49149.0,STARLINK-3053,PAYLOAD,2021-11-05 20:00:01,15.69752287,0.0004002,69.9976,338.7041,293.3619,136.4809,-0.0019361,-0.00225318,0.0,0 STARLINK-3053,1 49149U 21082V   21309.83334491 -.00225318  00000-0 -19361-2 0  9995,2 49149  69.9976 338.7041 0004002 293.3619 136.4809 15.69752287  9585,6737.743,91.734,362.304,356.911,0.0
49149.0,STARLINK-3053,PAYLOAD,2021-11-05 22:00:00,15.69699327,0.0003937,69.9976,338.4695,291.7376,248.8874,-0.0016837,-0.0019621,0.0,0 STARLINK-3053,1 49149U 21082V   21309.91667824 -.00196210  00000-0 -16837-2 0  9996,2 49149  69.9976 338.4695 0003937 291.7376 248.8874 15.69699327  3720,6737.894,91.737,362.412,357.107,0.0
49149.0,STARLINK-3053,PAYLOAD,2021-11-06 04:00:01,15.69510343,0.0003997,69.9978,337.767,291.3223,221.6129,0.00054042,0.00064167,0.0,0 STARLINK-3053,1 49149U 21082V   21310.16668981  .00064167  00000-0  54042-3 0  9994,2 49149  69.9978 337.7670 0003997 291.3223 221.6129 15.69510343  9638,6738.435,91.748,362.994,357.607,0.0
49149.0,STARLINK-3053,PAYLOAD,2021-11-06 08:00:03,15.69459647,0.0003864,69.9985,337.297,295.2953,79.1401,0.0020332,0.00246837,0.0,0 STARLINK-3053,1 49149U 21082V   21310.33336806  .00246837  00000-0  20332-2 0  9991,2 49149  69.9985 337.2970 0003864 295.2953  79.1401 15.69459647  3665,6738.58,91.751,363.049,357.841,0.0
49149.0,STARLINK-3053,PAYLOAD,2021-11-06 12:00:00,15.69485149,0.0003934,69.9987,336.8276,298.8540000000001,296.8785,0.0032972,0.00408761,0.0,0 STARLINK-3053,1 49149U 21082V   21310.50001157  .00408761  00000-0  32972-2 0  9997,2 49149  69.9987 336.8276 0003934 298.8540 296.8785 15.69485149  9698,6738.507,91.75,363.023,357.721,0.0
49149.0,STARLINK-3053,PAYLOAD,2021-11-06 16:00:00,15.69709048,0.0003724,69.9974,336.3613,298.9381,158.2243,4.6584e-06,3.43e-06,0.0,0 STARLINK-3053,1 49149U 21082V   21310.66667824  .00000343  00000-0  46584-5 0  9994,2 49149  69.9974 336.3613 0003724 298.9381 158.2243 15.69709048  3663,6737.866,91.737,362.241,357.222,0.0
